43578,IRIDIUM 159,2018,100.4,860.0,+,86.39,Active,1,LEO,USA,USA,Commercial/Government,Communications,Falcon,1 43578U 18061K   24058.49558032  .00000211  00000+0  68332-4 0  9997,2 43578  86.3943  48.0300 0002200  85.4819 274.6628 14.34217442292882,14.34217442,0.00022,LEO
43922,IRIDIUM 180,2019,100.4,860.0,+,86.4,Active,1,LEO,USA,USA,Commercial/Government,Communications,Falcon,1 43922U 19002A   24058.49507994  .00000247  00000+0  81270-4 0  9992,2 43922  86.4024 344.9417 0002217  83.6627 276.4821 14.34218562268497,14.34218562,0.0002217,LEO
43923,IRIDIUM 176,2019,97.81,860.0,+,86.62,Active,1,LEO,USA,USA,Commercial/Government,Communications,Falcon,1 43923U 19002B   24058.53440219  .00001697  00000+0  26514-3 0  9993,2 43923  86.6152 344.9535 0002640  88.4708 271.6811 14.72268862275568,14.72268862,0.000264,LEO
43924,IRIDIUM 168,2019,100.4,860.0,+,86.4,Active,1,LEO,USA,USA,Commercial/Government,Communications,Falcon,1 43924U 19002C   24058.48873632  .00000390  00000+0  13223-3 0  9999,2 43924  86.4028 344.9978 0002330  82.6185 277.5275 14.34216022268471,14.34216022,0.000233,LEO
43925,IRIDIUM 173,2019,100.4,860.0,+,86.4,Active,1,LEO,USA,USA,Commercial/Government,Communications,Falcon,1 43925U 19002D   24058.54581334  .00000412  00000+0  14004-3 0  9995,2 43925  86.4024 344.8975 0002147  82.0991 278.0449 14.34217527268468,14.34217527,0.0002147,LEO
43926,IRIDIUM 169,2019,100.1,860.0,+,86.43,Active,1,LEO,USA,USA,Commercial/Government,Communications,Falcon,1 43926U 19002E   24058.60124521  .00000559  00000+0  17631-3 0  9995,2 43926  86.4262  16.4630 0001327 171.6479 188.4741 14.38604880269374,14.3860488,0.0001327,LEO
43927,IRIDIUM 172,2019,100.4,860.0,+,86.4,Active,1,LEO,USA,USA,Commercial/Government,Communications,Falcon,1 43927U 19002F   24058.53947816  .00000440  00000+0  15003-3 0  9998,2 43927  86.4024 344.9054 0002302  83.7698 276.3760 14.34218698268472,14.34218698,0.0002302,LEO
43928,IRIDIUM 175,2019,97.81,860.0,+,86.15,Active,1,LEO,USA,USA,Commercial/Government,Communications,Falcon,1 43928U 19002G   24058.46056808  .00001667  00000+0  26041-3 0  9999,2 43928  86.1541 324.3971 0002285  85.0979 275.0498 14.72255719275548,14.72255719,0.0002285,LEO
