<?xml version="1.0" encoding="UTF-8"?>
<ndm xmlns:xsi="http://www.w3.org/2001/XMLSchema-instance" xsi:noNamespaceSchemaLocation="https://sanaregistry.org/r/ndmxml_unqualified/ndmxml-2.0.0-master-2.0.xsd">
<omm id="CCSDS_OMM_VERS" version="2.0">
<header><CREATION_DATE/><ORIGINATOR/></header><body><segment><metadata><OBJECT_NAME>IRIDIUM 159</OBJECT_NAME><OBJECT_ID>2018-061K</OBJECT_ID><CENTER_NAME>EARTH</CENTER_NAME><REF_FRAME>TEME</REF_FRAME><TIME_SYSTEM>UTC</TIME_SYSTEM><MEAN_ELEMENT_THEORY>SGP4</MEAN_ELEMENT_THEORY></metadata><data><meanElements><EPOCH>2024-02-27T11:53:38.139648</EPOCH><MEAN_MOTION>14.34217442</MEAN_MOTION><ECCENTRICITY>.00022</ECCENTRICITY><INCLINATION>86.3943</INCLINATION><RA_OF_ASC_NODE>48.0300</RA_OF_ASC_NODE><ARG_OF_PERICENTER>85.4819</ARG_OF_PERICENTER><MEAN_ANOMALY>274.6628</MEAN_ANOMALY></meanElements><tleParameters><EPHEMERIS_TYPE>0</EPHEMERIS_TYPE><CLASSIFICATION_TYPE>U</CLASSIFICATION_TYPE><NORAD_CAT_ID>43578</NORAD_CAT_ID><ELEMENT_SET_NO>999</ELEMENT_SET_NO><REV_AT_EPOCH>29288</REV_AT_EPOCH><BSTAR>.68332E-4</BSTAR><MEAN_MOTION_DOT>.211E-5</MEAN_MOTION_DOT><MEAN_MOTION_DDOT>0</MEAN_MOTION_DDOT></tleParameters></data></segment></body></omm>
<omm id="CCSDS_OMM_VERS" version="2.0">
<header><CREATION_DATE/><ORIGINATOR/></header><body><segment><metadata><OBJECT_NAME>IRIDIUM 180</OBJECT_NAME><OBJECT_ID>2019-002A</OBJECT_ID><CENTER_NAME>EARTH</CENTER_NAME><REF_FRAME>TEME</REF_FRAME><TIME_SYSTEM>UTC</TIME_SYSTEM><MEAN_ELEMENT_THEORY>SGP4</MEAN_ELEMENT_THEORY></metadata><data><meanElements><EPOCH>2024-02-27T11:52:54.906816</EPOCH><MEAN_MOTION>14.34218562</MEAN_MOTION><ECCENTRICITY>.0002217</ECCENTRICITY><INCLINATION>86.4024</INCLINATION><RA_OF_ASC_NODE>344.9417</RA_OF_ASC_NODE><ARG_OF_PERICENTER>83.6627</ARG_OF_PERICENTER><MEAN_ANOMALY>276.4821</MEAN_ANOMALY></meanElements><tleParameters><EPHEMERIS_TYPE>0</EPHEMERIS_TYPE><CLASSIFICATION_TYPE>U</CLASSIFICATION_TYPE><NORAD_CAT_ID>43922</NORAD_CAT_ID><ELEMENT_SET_NO>999</ELEMENT_SET_NO><REV_AT_EPOCH>26849</REV_AT_EPOCH><BSTAR>.8127E-4</BSTAR><MEAN_MOTION_DOT>.247E-5</MEAN_MOTION_DOT><MEAN_MOTION_DDOT>0</MEAN_MOTION_DDOT></tleParameters></data></segment></body></omm>
<omm id="CCSDS_OMM_VERS" version="2.0">
<header><CREATION_DATE/><ORIGINATOR/></header><body><segment><metadata><OBJECT_NAME>IRIDIUM 176</OBJECT_NAME><OBJECT_ID>2019-002B</OBJECT_ID><CENTER_NAME>EARTH</CENTER_NAME><REF_FRAME>TEME</REF_FRAME><TIME_SYSTEM>UTC</TIME_SYSTEM><MEAN_ELEMENT_THEORY>SGP4</MEAN_ELEMENT_THEORY></metadata><data><meanElements><EPOCH>2024-02-27T12:49:32.349216</EPOCH><MEAN_MOTION>14.72268862</MEAN_MOTION><ECCENTRICITY>.000264</ECCENTRICITY><INCLINATION>86.6152</INCLINATION><RA_OF_ASC_NODE>344.9535</RA_OF_ASC_NODE><ARG_OF_PERICENTER>88.4708</ARG_OF_PERICENTER><MEAN_ANOMALY>271.6811</MEAN_ANOMALY></meanElements><tleParameters><EPHEMERIS_TYPE>0</EPHEMERIS_TYPE><CLASSIFICATION_TYPE>U</CLASSIFICATION_TYPE><NORAD_CAT_ID>43923</NORAD_CAT_ID><ELEMENT_SET_NO>999</ELEMENT_SET_NO><REV_AT_EPOCH>27556</REV_AT_EPOCH><BSTAR>.26514E-3</BSTAR><MEAN_MOTION_DOT>.1697E-4</MEAN_MOTION_DOT><MEAN_MOTION_DDOT>0</MEAN_MOTION_DDOT></tleParameters></data></segment></body></omm>
<omm id="CCSDS_OMM_VERS" version="2.0">
<header><CREATION_DATE/><ORIGINATOR/></header><body><segment><metadata><OBJECT_NAME>IRIDIUM 168</OBJECT_NAME><OBJECT_ID>2019-002C</OBJECT_ID><CENTER_NAME>EARTH</CENTER_NAME><REF_FRAME>TEME</REF_FRAME><TIME_SYSTEM>UTC</TIME_SYSTEM><MEAN_ELEMENT_THEORY>SGP4</MEAN_ELEMENT_THEORY></metadata><data><meanElements><EPOCH>2024-02-27T11:43:46.818048</EPOCH><MEAN_MOTION>14.34216022</MEAN_MOTION><ECCENTRICITY>.000233</ECCENTRICITY><INCLINATION>86.4028</INCLINATION><RA_OF_ASC_NODE>344.9978</RA_OF_ASC_NODE><ARG_OF_PERICENTER>82.6185</ARG_OF_PERICENTER><MEAN_ANOMALY>277.5275</MEAN_ANOMALY></meanElements><tleParameters><EPHEMERIS_TYPE>0</EPHEMERIS_TYPE><CLASSIFICATION_TYPE>U</CLASSIFICATION_TYPE><NORAD_CAT_ID>43924</NORAD_CAT_ID><ELEMENT_SET_NO>999</ELEMENT_SET_NO><REV_AT_EPOCH>26847</REV_AT_EPOCH><BSTAR>.13223E-3</BSTAR><MEAN_MOTION_DOT>.39E-5</MEAN_MOTION_DOT><MEAN_MOTION_DDOT>0</MEAN_MOTION_DDOT></tleParameters></data></segment></body></omm>
<omm id="CCSDS_OMM_VERS" version="2.0">
<header><CREATION_DATE/><ORIGINATOR/></header><body><segment><metadata><OBJECT_NAME>IRIDIUM 173</OBJECT_NAME><OBJECT_ID>2019-002D</OBJECT_ID><CENTER_NAME>EARTH</CENTER_NAME><REF_FRAME>TEME</REF_FRAME><TIME_SYSTEM>UTC</TIME_SYSTEM><MEAN_ELEMENT_THEORY>SGP4</MEAN_ELEMENT_THEORY></metadata><data><meanElements><EPOCH>2024-02-27T13:05:58.272576</EPOCH><MEAN_MOTION>14.34217527</MEAN_MOTION><ECCENTRICITY>.0002147</ECCENTRICITY><INCLINATION>86.4024</INCLINATION><RA_OF_ASC_NODE>344.8975</RA_OF_ASC_NODE><ARG_OF_PERICENTER>82.0991</ARG_OF_PERICENTER><MEAN_ANOMALY>278.0449</MEAN_ANOMALY></meanElements><tleParameters><EPHEMERIS_TYPE>0</EPHEMERIS_TYPE><CLASSIFICATION_TYPE>U</CLASSIFICATION_TYPE><NORAD_CAT_ID>43925</NORAD_CAT_ID><ELEMENT_SET_NO>999</ELEMENT_SET_NO><REV_AT_EPOCH>26846</REV_AT_EPOCH><BSTAR>.14004E-3</BSTAR><MEAN_MOTION_DOT>.412E-5</MEAN_MOTION_DOT><MEAN_MOTION_DDOT>0</MEAN_MOTION_DDOT></tleParameters></data></segment></body></omm>
<omm id="CCSDS_OMM_VERS" version="2.0">
<header><CREATION_DATE/><ORIGINATOR/></header><body><segment><metadata><OBJECT_NAME>IRIDIUM 169</OBJECT_NAME><OBJECT_ID>2019-002E</OBJECT_ID><CENTER_NAME>EARTH</CENTER_NAME><REF_FRAME>TEME</REF_FRAME><TIME_SYSTEM>UTC</TIME_SYSTEM><MEAN_ELEMENT_THEORY>SGP4</MEAN_ELEMENT_THEORY></metadata><data><meanElements><EPOCH>2024-02-27T14:25:47.586144</EPOCH><MEAN_MOTION>14.38604880</MEAN_MOTION><ECCENTRICITY>.0001327</ECCENTRICITY><INCLINATION>86.4262</INCLINATION><RA_OF_ASC_NODE>16.4630</RA_OF_ASC_NODE><ARG_OF_PERICENTER>171.6479</ARG_OF_PERICENTER><MEAN_ANOMALY>188.4741</MEAN_ANOMALY></meanElements><tleParameters><EPHEMERIS_TYPE>0</EPHEMERIS_TYPE><CLASSIFICATION_TYPE>U</CLASSIFICATION_TYPE><NORAD_CAT_ID>43926</NORAD_CAT_ID><ELEMENT_SET_NO>999</ELEMENT_SET_NO><REV_AT_EPOCH>26937</REV_AT_EPOCH><BSTAR>.17631E-3</BSTAR><MEAN_MOTION_DOT>.559E-5</MEAN_MOTION_DOT><MEAN_MOTION_DDOT>0</MEAN_MOTION_DDOT></tleParameters></data></segment></body></omm>
<omm id="CCSDS_OMM_VERS" version="2.0">
<header><CREATION_DATE/><ORIGINATOR/></header><body><segment><metadata><OBJECT_NAME>IRIDIUM 172</OBJECT_NAME><OBJECT_ID>2019-002F</OBJECT_ID><CENTER_NAME>EARTH</CENTER_NAME><REF_FRAME>TEME</REF_FRAME><TIME_SYSTEM>UTC</TIME_SYSTEM><MEAN_ELEMENT_THEORY>SGP4</MEAN_ELEMENT_THEORY></metadata><data><meanElements><EPOCH>2024-02-27T12:56:50.913024</EPOCH><MEAN_MOTION>14.34218698</MEAN_MOTION><ECCENTRICITY>.0002302</ECCENTRICITY><INCLINATION>86.4024</INCLINATION><RA_OF_ASC_NODE>344.9054</RA_OF_ASC_NODE><ARG_OF_PERICENTER>83.7698</ARG_OF_PERICENTER><MEAN_ANOMALY>276.3760</MEAN_ANOMALY></meanElements><tleParameters><EPHEMERIS_TYPE>0</EPHEMERIS_TYPE><CLASSIFICATION_TYPE>U</CLASSIFICATION_TYPE><NORAD_CAT_ID>43927</NORAD_CAT_ID><ELEMENT_SET_NO>999</ELEMENT_SET_NO><REV_AT_EPOCH>26847</REV_AT_EPOCH><BSTAR>.15003E-3</BSTAR><MEAN_MOTION_DOT>.44E-5</MEAN_MOTION_DOT><MEAN_MOTION_DDOT>0</MEAN_MOTION_DDOT></tleParameters></data></segment></body></omm>
<omm id="CCSDS_OMM_VERS" version="2.0">
<header><CREATION_DATE/><ORIGINATOR/></header><body><segment><metadata><OBJECT_NAME>IRIDIUM 175</OBJECT_NAME><OBJECT_ID>2019-002G</OBJECT_ID><CENTER_NAME>EARTH</CENTER_NAME><REF_FRAME>TEME</REF_FRAME><TIME_SYSTEM>UTC</TIME_SYSTEM><MEAN_ELEMENT_THEORY>SGP4</MEAN_ELEMENT_THEORY></metadata><data><meanElements><EPOCH>2024-02-27T11:03:13.082112</EPOCH><MEAN_MOTION>14.72255719</MEAN_MOTION><ECCENTRICITY>.0002285</ECCENTRICITY><INCLINATION>86.1541</INCLINATION><RA_OF_ASC_NODE>324.3971</RA_OF_ASC_NODE><ARG_OF_PERICENTER>85.0979</ARG_OF_PERICENTER><MEAN_ANOMALY>275.0498</MEAN_ANOMALY></meanElements><tleParameters><EPHEMERIS_TYPE>0</EPHEMERIS_TYPE><CLASSIFICATION_TYPE>U</CLASSIFICATION_TYPE><NORAD_CAT_ID>43928</NORAD_CAT_ID><ELEMENT_SET_NO>999</ELEMENT_SET_NO><REV_AT_EPOCH>27554</REV_AT_EPOCH><BSTAR>.26041E-3</BSTAR><MEAN_MOTION_DOT>.1667E-4</MEAN_MOTION_DOT><MEAN_MOTION_DDOT>0</MEAN_MOTION_DDOT></tleParameters></data></segment></body></omm>

</ndm>
